#cP2015  1 11  0  0  0.00000000      96 ORBIT IGb08 HLM  IGS
## 1827      0.00000000   900.00000000 57033 0.0000000000000
+   31   G01G02G03G04G05G06G07G08G09G10G11G12G13G14G15G16G17
+        G18G19G20G21G22G23G24G25G27G28G29G30G31G32  0  0  0
+          0  0  0  0  0  0  0  0  0  0  0  0  0  0  0  0  0
+          0  0  0  0  0  0  0  0  0  0  0  0  0  0  0  0  0
+          0  0  0  0  0  0  0  0  0  0  0  0  0  0  0  0  0
++         2  2  2  2  2  2  2  3  2  2  2  2  2  2  2  2  2
++         2  2  2  2  2  2  2  2  2  2  2  2  2  2  0  0  0
++         0  0  0  0  0  0  0  0  0  0  0  0  0  0  0  0  0
++         0  0  0  0  0  0  0  0  0  0  0  0  0  0  0  0  0
++         0  0  0  0  0  0  0  0  0  0  0  0  0  0  0  0  0
%c G  cc GPS ccc cccc cccc cccc cccc ccccc ccccc ccccc ccccc
%c cc cc ccc ccc cccc cccc cccc cccc ccccc ccccc ccccc ccccc
%f  1.2500000  1.025000000  0.00000000000  0.000000000000000
%f  0.0000000  0.000000000  0.00000000000  0.000000000000000
%i    0    0    0    0      0      0      0      0         0
%i    0    0    0    0      0      0      0      0         0
/* FINAL ORBIT COMBINATION FROM WEIGHTED AVERAGE OF:        
/* cod emr esa gfz grg jpl mit ngs sio                      
/* REFERENCED TO IGS TIME (IGST) AND TO WEIGHTED MEAN POLE: 
/* PCV:IGS08_1822 OL/AL:FES2004  NONE     Y  ORB:CMB CLK:CMB
*  2015  1 11 23 15  0.00000000
PG01 -22813.339205 -13074.623410   4289.485033    -10.280907  6  5  5 103       
PG02   8575.795322  19951.102100  15938.614012    541.306387  6  6  5 114       
PG03 -13456.968813 -10055.160529  20567.477244    141.987361  6  4  7 105       
PG04 -18504.631332 -18405.161075  -5950.842803     -5.521241  9  5  7 117       
PG05   3273.457356  25051.773015  -7949.985381   -294.119350  6  6  5 122       
PG06  -5934.072686  14283.105626  21583.250922     49.031548  6  6  5  87       
PG07 -21639.701953  -3536.704939 -15140.990187    430.678803  9  2  7 114       
PG08 -10568.447043 -21293.753793  12662.481422     17.100503 10  9 10 142       
PG09 -25015.530926   6575.939991   6050.583950    -52.431146  7  6  4  96       
PG10  -9322.107718  22734.183578   9138.026393   -158.365494  4  4  6  95       
PG11 -22942.148169 -12242.195141  -6298.864064   -550.159456  8  8  6 112       
PG12  11088.258059  13823.732002  19778.701303    260.637566  7  6  5 118       
PG13   2762.095340  14791.174120 -22042.830404    -77.892136  5  6  6 130       
PG14  18545.405852 -15109.743127  11617.743854     97.715396  8  6  6  82       
PG15  17039.917748   7349.606413 -19189.720556   -225.777059  8  6  6 117       
PG16  -1290.322629 -25023.985248  -8276.432021   -165.746574  7  7  6 122       
PG17 -19628.949486  14938.084181   9829.450177   -149.436242  7  3  5 104       
PG18  15007.722610 -10635.485452 -18584.224590    371.624791  5  8  5 125       
PG19 -11830.257654 -11366.172012 -21148.414004   -496.256796  8  8  4 124       
PG20 -15863.413063   2838.004000  20948.603439    277.611836  6  4  7 121       
PG21  19440.871275  -2102.107544 -17478.640992   -405.667306  8  7  7 151       
PG22   9997.001476 -22040.372437 -10531.913862    306.349822  6  7  5 130       
PG23 -22194.061510  -1936.851524  14904.106606    -81.035953  8  5  6 113       
PG24  22191.475632  14684.915145   1118.652236    -41.631169  7  5  5 110       
PG25  14918.993910   -875.112427  21869.559249      3.839305  7  5  6 128       
PG27   -463.151254 -15900.938969 -21265.789564     43.648714  9  5  7 117       
PG28 -12458.538080  18423.093775 -13813.949568    411.788832  6  7  4 108       
PG29  24863.038477  -3094.102896   8785.072826    585.342172 10  7  8 127       
PG30 -15193.125442   6349.651487 -20849.305671    -86.432693  5  8  8 107       
PG31   3811.978701 -15356.761456  21420.752625    325.658534  5  4  5  99       
PG32  -5875.538076 -22214.723237  13775.008396   -249.716344  6  5  4 103       
*  2015  1 11 23 30  0.00000000
PG01 -22953.527228 -13459.371546   1466.221221    -10.280561  7  5  6 104       
PG02   6922.754242  19090.963383  17692.048678    541.308297  5  6  5 117       
PG03 -13191.648711 -12333.395250  19465.800016    142.010205  6  4  7  96       
PG04 -17693.949533 -18197.569917  -8584.025319     -5.522313 10  6  7 117       
PG05   2929.543185  25784.941217  -5250.204368   -294.114871  6  6  5 119       
PG06  -8002.265921  12909.314091  21778.515117     49.040727  6  6  5 100       
PG07 -22859.235993  -4595.153170 -12949.321289    430.682040 10  2  7 118       
PG08  -9376.140842 -20344.897396  14936.344376     17.101045 10  9 10 127       
PG09 -24363.023005   5983.129471   8730.788821    -52.441168  7  6  4  98       
PG10  -9528.400976  21458.884300  11616.170498   -158.366274  5  5  6 107       
PG11 -22055.514980 -12414.962794  -8818.493318   -550.161757  9  8  7 116       
PG12  10756.472594  15980.593620  18306.097533    260.640453  6  6  5 119       
PG13    434.171479  15595.743739 -21661.820962    -77.895576  5  5  6 130       
PG14  19699.782979 -15337.108387   9081.674826     97.712513  8  7  7  77       
PG15  15119.900379   8513.478680 -20262.695905   -225.778907  8  7  7 121       
PG16   -996.223373 -25777.794652  -5488.356337   -165.744032  5  8  6 126       
PG17 -20580.343562  15110.438124   7165.755482   -149.438360  8  5  4 112       
PG18  15044.124660  -8327.531880 -19700.196080    371.627585  6  7  6 124       
PG19  -9583.566128 -12237.569538 -21755.553358   -496.258277  9  7  3 101       
PG20 -15882.791720    382.969824  21128.738029    277.615546  6  4  8 120       
PG21  21012.896902   -827.918358 -15784.080163   -405.669905  8  7  7 148       
PG22  10235.716400 -20643.363351 -12848.701209    306.353368  6  8  5 118       
PG23 -20658.758782  -2855.317180  16817.508924    -81.038350  8  5  5 115       
PG24  22021.397106  14885.901599  -1717.566522    -41.631383  8  5  6 116       
PG25  14752.358580   1639.284259  21951.520123      3.837164  7  6  6 128       
PG27   1710.891652 -16880.651534 -20422.476958     43.651118  9  6  7 117       
PG28 -12358.678463  16616.282207 -15945.748173    411.791445  7  8  5 115       
PG29  23883.151504  -2464.337428  11343.057298    585.344105 11  7  8 130       
PG30 -16962.206552   4830.999197 -19873.531578    -86.432776  6  8  8 120       
PG31   5825.287243 -13958.908076  21951.001146    325.657555  5  4  5  99       
PG32  -5453.030079 -23597.311864  11508.478787   -249.708415  6  5  5 105       
*  2015  1 11 23 45  0.00000000
PG01 -22840.012513 -13670.637973  -1382.034679    -10.280252  7  5  6 105       
PG02   5071.843058  18227.774382  19153.469928    541.310394  5  7  5 116       
PG03 -13046.368226 -14479.008605  18028.884222    142.033006  7  5  7 110       
PG04 -16628.251762 -17886.132530 -11073.309031     -5.522511 10  7  7 130       
PG05   2624.264221  26223.151905  -2459.210630   -294.110397  6  7  5 115       
PG06 -10140.283432  11644.898050  21598.686493     49.049915  6  6  6 102       
PG07 -23913.580262  -5445.744525 -10537.537273    430.684978 10  3  8 120       
PG08  -7939.346661 -19319.815543  16963.414325     17.101264 11 10 10 146       
PG09 -23485.239169   5212.411354  11260.769872    -52.451196  7  6  5  87       
PG10  -9789.428795  19921.245009  13885.943151   -158.367897  5  5  6 106       
PG11 -20915.143372 -12566.175393 -11190.440293   -550.164310 10  8  7 120       
PG12  10558.181419  17966.167603  16518.972306    260.642854  6  6  5 110       
PG13  -1786.831338  16501.759904 -20913.706301    -77.898886  6  5  7 133       
PG14  20574.041987 -15499.696476   6389.437748     97.709012  8  8  7  86       
PG15  13170.450753   9823.521974 -20991.549410   -225.781033  9  7  7 128       
PG16   -767.703210 -26223.199093  -2603.825220   -165.741100  4  8  6 127       
PG17 -21247.205678  15192.549734   4378.175652   -149.440131  9  6  4 105       
PG18  15183.810854  -5916.643729 -20460.985528    371.629899  7  7  7 107       
PG19  -7340.106414 -13250.047966 -21995.737086   -496.259626  9  7  4 110       
PG20 -16015.374157  -2067.129051  20940.160054    277.619251  7  5  8 119       
PG21  22457.405784    259.214115 -13809.529868   -405.671986  9  7  8 126       
PG22  10537.809865 -19007.767972 -14939.855349    306.356822  6  9  6 102       
PG23 -18997.693529  -3948.195369  18448.893869    -81.040824  8  6  6 118       
PG24  21586.318581  14936.360083  -4524.474859    -41.632357  8  4  6 106       
PG25  14723.229584   4145.176224  21653.152062      3.835028  7  6  6 129       
PG27   3730.248396 -17917.469628 -19227.394066     43.653493  9  6  7 122       
PG28 -12341.576183  14572.884643 -17789.578755    411.793876  8  8  5 120       
PG29  22688.476676  -1659.758826  13705.702461    585.346033 12  7  9 131       
PG30 -18700.950287   3480.543582 -18556.195767    -86.432825  6  8  8 126       
PG31   7942.011450 -12654.679061  22107.669253    325.657039  6  5  5 101       
PG32  -5128.313302 -24735.358846   9049.433579   -249.700651  6  5  6 105       
EOF
